STARLINK-33694          
1 63407U 25065J   26069.15648321  .00031885  00000+0  11627-2 0  9994
2 63407  43.0024 104.2341 0001166 236.9117 123.1622 15.27593235 52919
STARLINK-33692          
1 63408U 25065K   26069.13430618  .00024945  00000+0  91261-3 0  9993
2 63408  42.9976 108.3934 0000270 296.8497  63.2327 15.27591806 52860
STARLINK-33693          
1 63409U 25065L   26069.17447380  .00025514  00000+0  93336-3 0  9990
2 63409  42.9992 104.3687 0001408 251.9059 108.1639 15.27584697 52911
STARLINK-33677          
1 63410U 25065M   26069.42830854  .00031927  00000+0  11639-2 0  9992
2 63410  43.0028 102.8336 0001822 256.9743 103.0905 15.27601523 52956
STARLINK-33647          
1 63411U 25065N   26069.14923987  .00027489  00000+0  10046-2 0  9991
2 63411  42.9994 111.9744 0000988 264.1012  95.9727 15.27582865 52827
STARLINK-33645          
1 63412U 25065P   26069.09317249  .00021111  00000+0  77431-3 0  9992
2 63412  43.0001 108.0120 0000396 237.0562 123.0252 15.27586871 52867
STARLINK-33670          
1 63413U 25065Q   26069.09752118  .00029600  00000+0  10805-2 0  9993
2 63413  43.0003 104.6224 0000766 305.4178  54.6602 15.27591353 52905
STARLINK-33644          
1 63414U 25065R   26069.07838868  .00025877  00000+0  94626-3 0  9995
2 63414  43.0015 105.3257 0000161 294.4280  65.6555 15.27590649 52897
STARLINK-33664          
1 63415U 25065S   26069.10522756  .00032081  00000+0  11699-2 0  9999
2 63415  43.0008 104.6716 0001269 267.8431  92.2275 15.27590973 52901
STARLINK-33649          
1 63416U 25065T   26069.09237649  .00031351  00000+0  11424-2 0  9997
2 63416  43.0010 104.5582 0002508 274.5501  85.5064 15.27622117 52902
STARLINK-33535          
1 63417U 25065U   26069.43086376  .00026673  00000+0  97470-3 0  9992
2 63417  43.0008 102.7863 0001767 255.3869 104.6787 15.27599538 52952
STARLINK-33703          
1 63418U 25065V   26069.45143199  .00025331  00000+0  92644-3 0  9990
2 63418  43.0006 102.9645 0001405 279.4928  80.5765 15.27594708 52955
STARLINK-33709          
1 63419U 25065W   26069.12835246  .00034516  00000+0  12568-2 0  9997
2 63419  43.0005 104.8403 0002425 283.0312  77.0269 15.27607217 52904
STARLINK-33698          
1 63420U 25065X   26069.08468203  .00027457  00000+0  10049-2 0  9997
2 63420  43.0007 104.4918 0000145 251.5430 108.5405 15.27537476 52904
STARLINK-33606          
1 63421U 25065Y   26069.42958617  .00025282  00000+0  92417-3 0  9993
2 63421  43.0004 102.7888 0002000 253.8592 106.2040 15.27612430 52954
STARLINK-33686          
1 63422U 25065Z   26069.43985847  .00030814  00000+0  11238-2 0  9998
2 63422  43.0021 102.8628 0001924 257.6993 102.3643 15.27604825 52953
