[{"OBJECT_NAME":"STARLINK-33694","OBJECT_ID":"2025-065J","EPOCH":"2026-03-10T03:45:20.149344","MEAN_MOTION":15.27593235,"ECCENTRICITY":0.00011669,"INCLINATION":43.0024,"RA_OF_ASC_NODE":104.2341,"ARG_OF_PERICENTER":236.9117,"MEAN_ANOMALY":123.1622,"EPHEMERIS_TYPE":0,"CLASSIFICATION_TYPE":"U","NORAD_CAT_ID":63407,"ELEMENT_SET_NO":999,"REV_AT_EPOCH":5291,"BSTAR":0.0011627399,"MEAN_MOTION_DOT":0.00031885,"MEAN_MOTION_DDOT":0},{"OBJECT_NAME":"STARLINK-33692","OBJECT_ID":"2025-065K","EPOCH":"2026-03-10T03:13:24.053952","MEAN_MOTION":15.27591806,"ECCENTRICITY":2.704e-5,"INCLINATION":42.9976,"RA_OF_ASC_NODE":108.3934,"ARG_OF_PERICENTER":296.8497,"MEAN_ANOMALY":63.2327,"EPHEMERIS_TYPE":0,"CLASSIFICATION_TYPE":"U","NORAD_CAT_ID":63408,"ELEMENT_SET_NO":999,"REV_AT_EPOCH":5286,"BSTAR":0.00091260563,"MEAN_MOTION_DOT":0.00024945,"MEAN_MOTION_DDOT":0},{"OBJECT_NAME":"STARLINK-33693","OBJECT_ID":"2025-065L","EPOCH":"2026-03-10T04:11:14.536320","MEAN_MOTION":15.27584697,"ECCENTRICITY":0.00014088,"INCLINATION":42.9992,"RA_OF_ASC_NODE":104.3687,"ARG_OF_PERICENTER":251.9059,"MEAN_ANOMALY":108.1639,"EPHEMERIS_TYPE":0,"CLASSIFICATION_TYPE":"U","NORAD_CAT_ID":63409,"ELEMENT_SET_NO":999,"REV_AT_EPOCH":5291,"BSTAR":0.00093335518,"MEAN_MOTION_DOT":0.00025514,"MEAN_MOTION_DDOT":0},{"OBJECT_NAME":"STARLINK-33677","OBJECT_ID":"2025-065M","EPOCH":"2026-03-10T10:16:45.857856","MEAN_MOTION":15.27601523,"ECCENTRICITY":0.0001822,"INCLINATION":43.0028,"RA_OF_ASC_NODE":102.8336,"ARG_OF_PERICENTER":256.9743,"MEAN_ANOMALY":103.0905,"EPHEMERIS_TYPE":0,"CLASSIFICATION_TYPE":"U","NORAD_CAT_ID":63410,"ELEMENT_SET_NO":999,"REV_AT_EPOCH":5295,"BSTAR":0.0011639,"MEAN_MOTION_DOT":0.00031927,"MEAN_MOTION_DDOT":0},{"OBJECT_NAME":"STARLINK-33647","OBJECT_ID":"2025-065N","EPOCH":"2026-03-10T03:34:54.324768","MEAN_MOTION":15.27582865,"ECCENTRICITY":9.885e-5,"INCLINATION":42.9994,"RA_OF_ASC_NODE":111.9744,"ARG_OF_PERICENTER":264.1012,"MEAN_ANOMALY":95.9727,"EPHEMERIS_TYPE":0,"CLASSIFICATION_TYPE":"U","NORAD_CAT_ID":63411,"ELEMENT_SET_NO":999,"REV_AT_EPOCH":5282,"BSTAR":0.0010046429,"MEAN_MOTION_DOT":0.00027489,"MEAN_MOTION_DDOT":0},{"OBJECT_NAME":"STARLINK-33645","OBJECT_ID":"2025-065P","EPOCH":"2026-03-10T02:14:10.103136","MEAN_MOTION":15.27586871,"ECCENTRICITY":3.963e-5,"INCLINATION":43.0001,"RA_OF_ASC_NODE":108.012,"ARG_OF_PERICENTER":237.0562,"MEAN_ANOMALY":123.0252,"EPHEMERIS_TYPE":0,"CLASSIFICATION_TYPE":"U","NORAD_CAT_ID":63412,"ELEMENT_SET_NO":999,"REV_AT_EPOCH":5286,"BSTAR":0.00077430634,"MEAN_MOTION_DOT":0.00021111,"MEAN_MOTION_DDOT":0},{"OBJECT_NAME":"STARLINK-33670","OBJECT_ID":"2025-065Q","EPOCH":"2026-03-10T02:20:25.829952","MEAN_MOTION":15.27591353,"ECCENTRICITY":7.663e-5,"INCLINATION":43.0003,"RA_OF_ASC_NODE":104.6224,"ARG_OF_PERICENTER":305.4178,"MEAN_ANOMALY":54.6602,"EPHEMERIS_TYPE":0,"CLASSIFICATION_TYPE":"U","NORAD_CAT_ID":63413,"ELEMENT_SET_NO":999,"REV_AT_EPOCH":5290,"BSTAR":0.0010804918,"MEAN_MOTION_DOT":0.000296,"MEAN_MOTION_DDOT":0},{"OBJECT_NAME":"STARLINK-33644","OBJECT_ID":"2025-065R","EPOCH":"2026-03-10T01:52:52.781952","MEAN_MOTION":15.27590649,"ECCENTRICITY":1.613e-5,"INCLINATION":43.0015,"RA_OF_ASC_NODE":105.3257,"ARG_OF_PERICENTER":294.428,"MEAN_ANOMALY":65.6555,"EPHEMERIS_TYPE":0,"CLASSIFICATION_TYPE":"U","NORAD_CAT_ID":63414,"ELEMENT_SET_NO":999,"REV_AT_EPOCH":5289,"BSTAR":0.00094625839,"MEAN_MOTION_DOT":0.00025877,"MEAN_MOTION_DDOT":0},{"OBJECT_NAME":"STARLINK-33664","OBJECT_ID":"2025-065S","EPOCH":"2026-03-10T02:31:31.661184","MEAN_MOTION":15.27590973,"ECCENTRICITY":0.00012694,"INCLINATION":43.0008,"RA_OF_ASC_NODE":104.6716,"ARG_OF_PERICENTER":267.8431,"MEAN_ANOMALY":92.2275,"EPHEMERIS_TYPE":0,"CLASSIFICATION_TYPE":"U","NORAD_CAT_ID":63415,"ELEMENT_SET_NO":999,"REV_AT_EPOCH":5290,"BSTAR":0.0011698606,"MEAN_MOTION_DOT":0.00032081,"MEAN_MOTION_DDOT":0},{"OBJECT_NAME":"STARLINK-33649","OBJECT_ID":"2025-065T","EPOCH":"2026-03-10T02:13:01.328736","MEAN_MOTION":15.27622117,"ECCENTRICITY":0.00025088,"INCLINATION":43.001,"RA_OF_ASC_NODE":104.5582,"ARG_OF_PERICENTER":274.5501,"MEAN_ANOMALY":85.5064,"EPHEMERIS_TYPE":0,"CLASSIFICATION_TYPE":"U","NORAD_CAT_ID":63416,"ELEMENT_SET_NO":999,"REV_AT_EPOCH":5290,"BSTAR":0.0011424315,"MEAN_MOTION_DOT":0.00031351,"MEAN_MOTION_DDOT":0},{"OBJECT_NAME":"STARLINK-33535","OBJECT_ID":"2025-065U","EPOCH":"2026-03-10T10:20:26.628864","MEAN_MOTION":15.27599538,"ECCENTRICITY":0.0001767,"INCLINATION":43.0008,"RA_OF_ASC_NODE":102.7863,"ARG_OF_PERICENTER":255.3869,"MEAN_ANOMALY":104.6787,"EPHEMERIS_TYPE":0,"CLASSIFICATION_TYPE":"U","NORAD_CAT_ID":63417,"ELEMENT_SET_NO":999,"REV_AT_EPOCH":5295,"BSTAR":0.0009747,"MEAN_MOTION_DOT":0.00026673,"MEAN_MOTION_DDOT":0},{"OBJECT_NAME":"STARLINK-33703","OBJECT_ID":"2025-065V","EPOCH":"2026-03-10T10:50:03.723936","MEAN_MOTION":15.27594708,"ECCENTRICITY":0.0001405,"INCLINATION":43.0006,"RA_OF_ASC_NODE":102.9645,"ARG_OF_PERICENTER":279.4928,"MEAN_ANOMALY":80.5765,"EPHEMERIS_TYPE":0,"CLASSIFICATION_TYPE":"U","NORAD_CAT_ID":63418,"ELEMENT_SET_NO":999,"REV_AT_EPOCH":5295,"BSTAR":0.00092644,"MEAN_MOTION_DOT":0.00025331,"MEAN_MOTION_DDOT":0},{"OBJECT_NAME":"STARLINK-33709","OBJECT_ID":"2025-065W","EPOCH":"2026-03-10T03:04:49.652544","MEAN_MOTION":15.27607217,"ECCENTRICITY":0.00024257,"INCLINATION":43.0005,"RA_OF_ASC_NODE":104.8403,"ARG_OF_PERICENTER":283.0312,"MEAN_ANOMALY":77.0269,"EPHEMERIS_TYPE":0,"CLASSIFICATION_TYPE":"U","NORAD_CAT_ID":63419,"ELEMENT_SET_NO":999,"REV_AT_EPOCH":5290,"BSTAR":0.001256849,"MEAN_MOTION_DOT":0.00034516,"MEAN_MOTION_DDOT":0},{"OBJECT_NAME":"STARLINK-33698","OBJECT_ID":"2025-065X","EPOCH":"2026-03-10T02:01:56.527392","MEAN_MOTION":15.27537476,"ECCENTRICITY":1.459e-5,"INCLINATION":43.0007,"RA_OF_ASC_NODE":104.4918,"ARG_OF_PERICENTER":251.543,"MEAN_ANOMALY":108.5405,"EPHEMERIS_TYPE":0,"CLASSIFICATION_TYPE":"U","NORAD_CAT_ID":63420,"ELEMENT_SET_NO":999,"REV_AT_EPOCH":5290,"BSTAR":0.0010048782,"MEAN_MOTION_DOT":0.00027457,"MEAN_MOTION_DDOT":0},{"OBJECT_NAME":"STARLINK-33606","OBJECT_ID":"2025-065Y","EPOCH":"2026-03-10T10:18:36.245088","MEAN_MOTION":15.2761243,"ECCENTRICITY":0.0002,"INCLINATION":43.0004,"RA_OF_ASC_NODE":102.7888,"ARG_OF_PERICENTER":253.8592,"MEAN_ANOMALY":106.204,"EPHEMERIS_TYPE":0,"CLASSIFICATION_TYPE":"U","NORAD_CAT_ID":63421,"ELEMENT_SET_NO":999,"REV_AT_EPOCH":5295,"BSTAR":0.00092417,"MEAN_MOTION_DOT":0.00025282,"MEAN_MOTION_DDOT":0},{"OBJECT_NAME":"STARLINK-33686","OBJECT_ID":"2025-065Z","EPOCH":"2026-03-10T10:33:23.771808","MEAN_MOTION":15.27604825,"ECCENTRICITY":0.0001924,"INCLINATION":43.0021,"RA_OF_ASC_NODE":102.8628,"ARG_OF_PERICENTER":257.6993,"MEAN_ANOMALY":102.3643,"EPHEMERIS_TYPE":0,"CLASSIFICATION_TYPE":"U","NORAD_CAT_ID":63422,"ELEMENT_SET_NO":999,"REV_AT_EPOCH":5295,"BSTAR":0.0011238,"MEAN_MOTION_DOT":0.00030814,"MEAN_MOTION_DDOT":0}]
